QIANFAN-41              
1 62242U 24232F   25273.14194595  .00000148  00000+0  21002-3 0  9996
2 62242  88.9996  48.6109 0015096  49.9046 310.3426 13.50973001 89317
QIANFAN-42              
1 62243U 24232G   25273.15244325  .00000838  00000+0  35640-3 0  9994
2 62243  88.9996  45.7475 0013660 332.2805  27.7658 14.24366529 90892
QIANFAN-43              
1 62244U 24232H   25273.13787709  .00000149  00000+0  21203-3 0  9996
2 62244  89.0000  48.6733 0016723  54.2772 305.9932 13.50974231 57923
QIANFAN-44              
1 62245U 24232J   25273.19954477  .00000152  00000+0  21653-3 0  9994
2 62245  88.9999  48.4789 0014882  51.9571 308.2920 13.50975633 89401
QIANFAN-45              
1 62246U 24232K   25273.16665465  .00000138  00000+0  19555-3 0  9990
2 62246  89.0003  48.6263 0015518  51.5163 308.7377 13.50972241 89323
QIANFAN-46              
1 62247U 24232L   25273.19132182  .00000164  00000+0  23478-3 0  9997
2 62247  88.9998  48.6957 0015714  56.4689 303.7961 13.50972979 89287
QIANFAN-47              
1 62248U 24232M   25273.19547270  .00000163  00000+0  23426-3 0  9998
2 62248  88.9993  48.6312 0016123  55.5099 304.7572 13.50974675 89316
QIANFAN-48              
1 62249U 24232N   25273.15846009  .00000172  00000+0  24778-3 0  9998
2 62249  88.9999  48.6340 0018423  57.4423 302.8504 13.50970386 89310
